[{"OBJECT_NAME":"STARLINK-35521","OBJECT_ID":"2025-225G","EPOCH":"2026-03-09T12:51:17.125632","MEAN_MOTION":15.30192825,"ECCENTRICITY":0.00012729,"INCLINATION":53.1593,"RA_OF_ASC_NODE":166.4577,"ARG_OF_PERICENTER":78.6148,"MEAN_ANOMALY":281.4996,"EPHEMERIS_TYPE":0,"CLASSIFICATION_TYPE":"U","NORAD_CAT_ID":65916,"ELEMENT_SET_NO":999,"REV_AT_EPOCH":2438,"BSTAR":0.00069808367,"MEAN_MOTION_DOT":0.00020368,"MEAN_MOTION_DDOT":0},{"OBJECT_NAME":"CZ-4B DEB","OBJECT_ID":"1999-057DZ","EPOCH":"2026-03-09T09:52:12.897696","MEAN_MOTION":15.33653758,"ECCENTRICITY":0.00127381,"INCLINATION":98.4932,"RA_OF_ASC_NODE":238.6814,"ARG_OF_PERICENTER":254.7139,"MEAN_ANOMALY":105.2693,"EPHEMERIS_TYPE":0,"CLASSIFICATION_TYPE":"U","NORAD_CAT_ID":26235,"ELEMENT_SET_NO":999,"REV_AT_EPOCH":38912,"BSTAR":0.0023807093,"MEAN_MOTION_DOT":0.00078286,"MEAN_MOTION_DDOT":0}]
